OBJECT_NAME,OBJECT_ID,EPOCH,MEAN_MOTION,ECCENTRICITY,INCLINATION,RA_OF_ASC_NODE,ARG_OF_PERICENTER,MEAN_ANOMALY,EPHEMERIS_TYPE,CLASSIFICATION_TYPE,NORAD_CAT_ID,ELEMENT_SET_NO,REV_AT_EPOCH,BSTAR,MEAN_MOTION_DOT,MEAN_MOTION_DDOT
PERSEUS-M1,2014-033AF,2026-06-18T07:22:31.426752,14.95633663,.0010225,97.9641,113.4573,297.0546,62.9630,0,U,40039,999,65080,.12317E-3,.1309E-4,0
POLYITAN-1,2014-033AJ,2026-06-18T14:50:43.312704,15.33297714,.0008724,98.0940,196.0151,137.4054,222.7864,0,U,40042,999,65381,.47423E-3,.152E-3,0
TIGRISAT,2014-033AK,2026-06-18T09:30:11.268000,14.85166384,.0050562,97.7831,319.3796,71.3546,289.3150,0,U,40043,999,64580,.1913E-3,.1621E-4,0
AEROCUBE 6A,2014-033AM,2026-06-18T10:13:42.695040,14.98119366,.0038811,97.7249,336.3614,13.8936,346.3344,0,U,40045,999,64680,.33873E-3,.4013E-4,0
AEROCUBE 6B,2014-033AN,2026-06-18T10:15:19.770624,14.99579623,.0038212,97.7247,336.1555,5.1104,355.0501,0,U,40046,999,64694,.31582E-3,.3882E-4,0
CANX-4,2014-034C,2026-06-18T15:18:43.670016,14.81266926,.001306,98.3120,45.0044,12.4887,347.6645,0,U,40055,999,64474,.98465E-4,.711E-5,0
CANX-5,2014-034D,2026-06-18T15:16:26.840064,14.81284229,.0013066,98.3121,45.0464,12.7135,347.4404,0,U,40056,999,63555,.9984E-4,.722E-5,0
UKUBE-1,2014-037F,2026-06-18T16:31:51.404160,15.13574198,.0002836,98.4234,173.1181,132.2061,227.9408,0,U,40074,999,64878,.41776E-3,.7419E-4,0
BRITE-PL2 (HEWELIUSZ),2014-049B,2026-06-18T13:52:43.989024,14.94597585,.0015325,97.9099,281.5889,104.3589,255.9333,0,U,40119,999,64165,.15241E-3,.1593E-4,0
AEROCUBE 5C,2015-058B,2026-06-18T12:17:06.222048,14.91458402,.0130808,64.7674,258.4697,62.7526,298.6842,0,U,40965,999,36585,.15833E-3,.1689E-4,0
AEROCUBE 7,2015-058C,2026-06-18T07:17:32.112096,14.95731068,.0120511,64.7616,241.3183,61.2612,300.0548,0,U,40966,999,36612,.2005E-3,.2407E-4,0
FOX-1A (AO-85),2015-058D,2026-06-18T16:39:25.987392,14.90975407,.0130534,64.7758,274.3012,56.0068,305.3365,0,U,40967,999,11379,.17186E-3,.1823E-4,0
SINOD-D 1,2015-058E,2026-06-18T16:23:12.293088,14.95913324,.0119134,64.7749,254.2293,52.4856,308.7015,0,U,40968,999,11688,.20562E-3,.2478E-4,0
SNAP-3 ALICE,2015-058G,2026-06-18T12:28:33.221280,15.60328596,.0027823,64.7502,99.3247,12.0699,348.1107,0,U,40970,999,11709,.12412E-2,.105258E-2,0
LMRST-SAT,2015-058H,2026-06-18T07:32:33.843840,14.90593890,.0132146,64.7763,271.8213,58.1750,303.2148,0,U,40971,999,11372,.15881E-3,.1659E-4,0
SNAP-3 EDDIE,2015-058J,2026-06-18T12:12:39.182976,15.61614603,.0027477,64.7423,90.0775,16.0390,344.1620,0,U,40972,999,11923,.11843E-2,.10551E-2,0
PROPCUBE 3,2015-058K,2026-06-18T14:45:19.272096,14.94263418,.0124113,64.7680,248.0755,59.3472,301.9808,0,U,40973,999,11501,.17894E-3,.2059E-4,0
BISONSAT,2015-058L,2026-06-18T06:52:24.887424,15.16210467,.0079142,64.7580,170.0907,46.8172,313.9529,0,U,40974,999,11578,.47758E-3,.9843E-4,0
SNAP-3 JIMI,2015-058M,2026-06-18T06:06:11.481984,15.02305085,.0106227,64.7633,216.3962,54.9329,306.1695,0,U,40975,999,11438,.2434E-3,.3453E-4,0
PROPCUBE 1 (FLORA),2015-058N,2026-06-18T16:09:21.449952,14.89227681,.0130823,64.7755,290.6305,60.3454,301.0610,0,U,40976,999,11648,.1744E-3,.1765E-4,0
SINOD-D 3,2015-058P,2026-06-18T13:54:53.474976,14.94023001,.0119331,64.7729,271.4706,57.5879,303.6712,0,U,40977,999,11496,.21237E-3,.2433E-4,0
HORYU-4,2016-012D,2026-06-18T01:30:03.446496,15.96640257,.00059419,30.9844,72.5998,278.9863,81.0127,0,U,41340,999,57095,.98166813E-3,.440932E-2,.72867516E-4
RAVAN,2016-067B,2026-06-18T04:51:09.611712,15.54764284,.0004242,97.9884,58.8909,28.9137,331.2350,0,U,41849,999,52785,.59216E-3,.39399E-3,0
CELTEE 1,2016-067C,2026-06-18T03:05:39.183072,15.19689358,.000098,98.0668,35.7600,126.8812,233.2511,0,U,41850,999,52602,.18683E-3,.391E-4,0
OPTICUBE 04,2016-067D,2026-06-18T12:53:49.315776,15.09664347,.0016939,98.0698,21.8916,111.3354,248.9683,0,U,41851,999,52537,.12559E-3,.1956E-4,0
AEROCUBE 8D,2016-067E,2026-06-18T14:23:32.284608,15.24413704,.0004791,98.0674,39.8781,119.8253,240.3459,0,U,41852,999,52628,.2456E-3,.5942E-4,0
AEROCUBE 8C,2016-067F,2026-06-18T14:59:11.272128,15.24663119,.0006548,98.0544,37.1301,65.0176,295.1739,0,U,41853,999,52628,.245E-3,.5974E-4,0
CORVUS BC2,2017-042X,2026-06-18T09:22:27.433056,15.06304598,.0014434,97.4071,330.6929,106.7137,253.5676,0,U,42846,999,48724,.21696E-3,.3135E-4,0
CORVUS BC1,2017-042Y,2026-06-18T12:25:47.596800,15.06474492,.0013448,97.4106,331.6305,85.2271,275.0492,0,U,42847,999,48729,.18905E-3,.2736E-4,0
MAKERSAT 0,2017-073D,2026-06-18T14:48:09.690048,15.32138108,.010502,97.4614,52.1465,267.8006,91.1207,0,U,43016,999,46668,.38538E-3,.14158E-3,0
